2025-313AG              
1 67278U 25313AG  26011.63255230  .00007469  00000+0  34727-3 0  9991
2 67278  97.4094  88.8565 0014079 190.8730 169.2203 15.20170046  2151
GALAPAGOS-UTE-SWSU      
1 67279U 25313AH  26011.63211176  .00008600  00000+0  39840-3 0  9992
2 67279  97.4105  88.8588 0014683 187.8326 172.2683 15.20240519  2146
2025-313AJ              
1 67280U 25313AJ  26011.62889032  .00006376  00000+0  29379-3 0  9999
2 67280  97.4176  88.8633 0013583 184.3528 175.7592 15.20545850  2144
2025-313AK              
1 67281U 25313AK  26011.49644753  .00006387  00000+0  29364-3 0  9990
2 67281  97.4060  88.7246 0012289 183.5074 176.6077 15.20635510  2124
2025-313AL              
1 67282U 25313AL  26011.62472107  .00006504  00000+0  29581-3 0  9990
2 67282  97.4108  88.8554 0011085 181.9046 178.2149 15.21014523  2141
2025-313AM              
1 67283U 25313AM  26011.62419409  .00011482  00000+0  51778-3 0  9991
2 67283  97.4115  88.8578 0010996 182.0415 178.0777 15.21128815  2143
2025-313AN              
1 67284U 25313AN  26011.62472825  .00004131  00000+0  18927-3 0  9995
2 67284  97.4102  88.8539 0010951 181.6733 178.4468 15.20974596  2141
2025-313AP              
1 67285U 25313AP  26011.49196941  .00010855  00000+0  48889-3 0  9993
2 67285  97.4094  88.7242 0010598 183.7892 176.3266 15.21191087  2126
2025-313AQ              
1 67286U 25313AQ  26011.49149861  .00010060  00000+0  45290-3 0  9994
2 67286  97.4114  88.7375 0010302 179.7866 180.3376 15.21226112  2121
LUCA                    
1 67287U 25313AR  26011.49110018  .00011144  00000+0  50023-3 0  9991
2 67287  97.4113  88.7383 0010211 180.4953 179.6274 15.21302018  2123
2025-313AS              
1 67288U 25313AS  26011.49159941  .00007420  00000+0  33522-3 0  9997
2 67288  97.4104  88.7345 0012039 172.9626 187.1781 15.21184420  2127
2025-313AT              
1 67289U 25313AT  26011.49041041  .00017282  00000+0  77032-3 0  9990
2 67289  97.4115  88.7396 0010112 180.9187 179.2032 15.21440565  2123
