CCSDS_OMM_VERS = 2.0
CREATION_DATE  = 
ORIGINATOR     = 

OBJECT_NAME    = 2025-313AG
OBJECT_ID      = 2025-313AG
CENTER_NAME    = EARTH
REF_FRAME      = TEME
TIME_SYSTEM    = UTC
MEAN_ELEMENT_THEORY = SGP/SGP4

EPOCH          = 2026-01-11T15:10:52.518720
MEAN_MOTION    = 15.20170046
ECCENTRICITY   = .00140798
INCLINATION    = 97.4094
RA_OF_ASC_NODE = 88.8565
ARG_OF_PERICENTER = 190.8730
MEAN_ANOMALY   = 169.2203

EPHEMERIS_TYPE = 0
CLASSIFICATION_TYPE = U
NORAD_CAT_ID   = 67278
ELEMENT_SET_NO = 999
REV_AT_EPOCH   = 215
BSTAR          = .34726515E-3
MEAN_MOTION_DOT = .7469E-4
MEAN_MOTION_DDOT = 0

CCSDS_OMM_VERS = 2.0
CREATION_DATE  = 
ORIGINATOR     = 

OBJECT_NAME    = GALAPAGOS-UTE-SWSU
OBJECT_ID      = 2025-313AH
CENTER_NAME    = EARTH
REF_FRAME      = TEME
TIME_SYSTEM    = UTC
MEAN_ELEMENT_THEORY = SGP/SGP4

EPOCH          = 2026-01-11T15:10:14.456064
MEAN_MOTION    = 15.20240519
ECCENTRICITY   = .0014683
INCLINATION    = 97.4105
RA_OF_ASC_NODE = 88.8588
ARG_OF_PERICENTER = 187.8326
MEAN_ANOMALY   = 172.2683

EPHEMERIS_TYPE = 0
CLASSIFICATION_TYPE = U
NORAD_CAT_ID   = 67279
ELEMENT_SET_NO = 999
REV_AT_EPOCH   = 214
BSTAR          = .39840232E-3
MEAN_MOTION_DOT = .86E-4
MEAN_MOTION_DDOT = 0

CCSDS_OMM_VERS = 2.0
CREATION_DATE  = 
ORIGINATOR     = 

OBJECT_NAME    = 2025-313AJ
OBJECT_ID      = 2025-313AJ
CENTER_NAME    = EARTH
REF_FRAME      = TEME
TIME_SYSTEM    = UTC
MEAN_ELEMENT_THEORY = SGP/SGP4

EPOCH          = 2026-01-11T15:05:36.123648
MEAN_MOTION    = 15.20545850
ECCENTRICITY   = .00135839
INCLINATION    = 97.4176
RA_OF_ASC_NODE = 88.8633
ARG_OF_PERICENTER = 184.3528
MEAN_ANOMALY   = 175.7592

EPHEMERIS_TYPE = 0
CLASSIFICATION_TYPE = U
NORAD_CAT_ID   = 67280
ELEMENT_SET_NO = 999
REV_AT_EPOCH   = 214
BSTAR          = .29378576E-3
MEAN_MOTION_DOT = .6376E-4
MEAN_MOTION_DDOT = 0

CCSDS_OMM_VERS = 2.0
CREATION_DATE  = 
ORIGINATOR     = 

OBJECT_NAME    = 2025-313AK
OBJECT_ID      = 2025-313AK
CENTER_NAME    = EARTH
REF_FRAME      = TEME
TIME_SYSTEM    = UTC
MEAN_ELEMENT_THEORY = SGP/SGP4

EPOCH          = 2026-01-11T11:54:53.066592
MEAN_MOTION    = 15.20635510
ECCENTRICITY   = .00122892
INCLINATION    = 97.4060
RA_OF_ASC_NODE = 88.7246
ARG_OF_PERICENTER = 183.5074
MEAN_ANOMALY   = 176.6077

EPHEMERIS_TYPE = 0
CLASSIFICATION_TYPE = U
NORAD_CAT_ID   = 67281
ELEMENT_SET_NO = 999
REV_AT_EPOCH   = 212
BSTAR          = .29364027E-3
MEAN_MOTION_DOT = .6387E-4
MEAN_MOTION_DDOT = 0

CCSDS_OMM_VERS = 2.0
CREATION_DATE  = 
ORIGINATOR     = 

OBJECT_NAME    = 2025-313AL
OBJECT_ID      = 2025-313AL
CENTER_NAME    = EARTH
REF_FRAME      = TEME
TIME_SYSTEM    = UTC
MEAN_ELEMENT_THEORY = SGP/SGP4

EPOCH          = 2026-01-11T14:59:35.900448
MEAN_MOTION    = 15.21014523
ECCENTRICITY   = .00110858
INCLINATION    = 97.4108
RA_OF_ASC_NODE = 88.8554
ARG_OF_PERICENTER = 181.9046
MEAN_ANOMALY   = 178.2149

EPHEMERIS_TYPE = 0
CLASSIFICATION_TYPE = U
NORAD_CAT_ID   = 67282
ELEMENT_SET_NO = 999
REV_AT_EPOCH   = 214
BSTAR          = .2958112E-3
MEAN_MOTION_DOT = .6504E-4
MEAN_MOTION_DDOT = 0

CCSDS_OMM_VERS = 2.0
CREATION_DATE  = 
ORIGINATOR     = 

OBJECT_NAME    = 2025-313AM
OBJECT_ID      = 2025-313AM
CENTER_NAME    = EARTH
REF_FRAME      = TEME
TIME_SYSTEM    = UTC
MEAN_ELEMENT_THEORY = SGP/SGP4

EPOCH          = 2026-01-11T14:58:50.369376
MEAN_MOTION    = 15.21128815
ECCENTRICITY   = .00109962
INCLINATION    = 97.4115
RA_OF_ASC_NODE = 88.8578
ARG_OF_PERICENTER = 182.0415
MEAN_ANOMALY   = 178.0777

EPHEMERIS_TYPE = 0
CLASSIFICATION_TYPE = U
NORAD_CAT_ID   = 67283
ELEMENT_SET_NO = 999
REV_AT_EPOCH   = 214
BSTAR          = .51778129E-3
MEAN_MOTION_DOT = .11482E-3
MEAN_MOTION_DDOT = 0

CCSDS_OMM_VERS = 2.0
CREATION_DATE  = 
ORIGINATOR     = 

OBJECT_NAME    = 2025-313AN
OBJECT_ID      = 2025-313AN
CENTER_NAME    = EARTH
REF_FRAME      = TEME
TIME_SYSTEM    = UTC
MEAN_ELEMENT_THEORY = SGP/SGP4

EPOCH          = 2026-01-11T14:59:36.520800
MEAN_MOTION    = 15.20974596
ECCENTRICITY   = .00109515
INCLINATION    = 97.4102
RA_OF_ASC_NODE = 88.8539
ARG_OF_PERICENTER = 181.6733
MEAN_ANOMALY   = 178.4468

EPHEMERIS_TYPE = 0
CLASSIFICATION_TYPE = U
NORAD_CAT_ID   = 67284
ELEMENT_SET_NO = 999
REV_AT_EPOCH   = 214
BSTAR          = .18927406E-3
MEAN_MOTION_DOT = .4131E-4
MEAN_MOTION_DDOT = 0

CCSDS_OMM_VERS = 2.0
CREATION_DATE  = 
ORIGINATOR     = 

OBJECT_NAME    = 2025-313AP
OBJECT_ID      = 2025-313AP
CENTER_NAME    = EARTH
REF_FRAME      = TEME
TIME_SYSTEM    = UTC
MEAN_ELEMENT_THEORY = SGP/SGP4

EPOCH          = 2026-01-11T11:48:26.157024
MEAN_MOTION    = 15.21191087
ECCENTRICITY   = .00105985
INCLINATION    = 97.4094
RA_OF_ASC_NODE = 88.7242
ARG_OF_PERICENTER = 183.7892
MEAN_ANOMALY   = 176.3266

EPHEMERIS_TYPE = 0
CLASSIFICATION_TYPE = U
NORAD_CAT_ID   = 67285
ELEMENT_SET_NO = 999
REV_AT_EPOCH   = 212
BSTAR          = .48888659E-3
MEAN_MOTION_DOT = .10855E-3
MEAN_MOTION_DDOT = 0

CCSDS_OMM_VERS = 2.0
CREATION_DATE  = 
ORIGINATOR     = 

OBJECT_NAME    = 2025-313AQ
OBJECT_ID      = 2025-313AQ
CENTER_NAME    = EARTH
REF_FRAME      = TEME
TIME_SYSTEM    = UTC
MEAN_ELEMENT_THEORY = SGP/SGP4

EPOCH          = 2026-01-11T11:47:45.479904
MEAN_MOTION    = 15.21226112
ECCENTRICITY   = .00103022
INCLINATION    = 97.4114
RA_OF_ASC_NODE = 88.7375
ARG_OF_PERICENTER = 179.7866
MEAN_ANOMALY   = 180.3376

EPHEMERIS_TYPE = 0
CLASSIFICATION_TYPE = U
NORAD_CAT_ID   = 67286
ELEMENT_SET_NO = 999
REV_AT_EPOCH   = 212
BSTAR          = .45290125E-3
MEAN_MOTION_DOT = .1006E-3
MEAN_MOTION_DDOT = 0

CCSDS_OMM_VERS = 2.0
CREATION_DATE  = 
ORIGINATOR     = 

OBJECT_NAME    = LUCA
OBJECT_ID      = 2025-313AR
CENTER_NAME    = EARTH
REF_FRAME      = TEME
TIME_SYSTEM    = UTC
MEAN_ELEMENT_THEORY = SGP/SGP4

EPOCH          = 2026-01-11T11:47:11.055552
MEAN_MOTION    = 15.21302018
ECCENTRICITY   = .00102113
INCLINATION    = 97.4113
RA_OF_ASC_NODE = 88.7383
ARG_OF_PERICENTER = 180.4953
MEAN_ANOMALY   = 179.6274

EPHEMERIS_TYPE = 0
CLASSIFICATION_TYPE = U
NORAD_CAT_ID   = 67287
ELEMENT_SET_NO = 999
REV_AT_EPOCH   = 212
BSTAR          = .50022721E-3
MEAN_MOTION_DOT = .11144E-3
MEAN_MOTION_DDOT = 0

CCSDS_OMM_VERS = 2.0
CREATION_DATE  = 
ORIGINATOR     = 

OBJECT_NAME    = 2025-313AS
OBJECT_ID      = 2025-313AS
CENTER_NAME    = EARTH
REF_FRAME      = TEME
TIME_SYSTEM    = UTC
MEAN_ELEMENT_THEORY = SGP/SGP4

EPOCH          = 2026-01-11T11:47:54.189024
MEAN_MOTION    = 15.21184420
ECCENTRICITY   = .00120393
INCLINATION    = 97.4104
RA_OF_ASC_NODE = 88.7345
ARG_OF_PERICENTER = 172.9626
MEAN_ANOMALY   = 187.1781

EPHEMERIS_TYPE = 0
CLASSIFICATION_TYPE = U
NORAD_CAT_ID   = 67288
ELEMENT_SET_NO = 999
REV_AT_EPOCH   = 212
BSTAR          = .33521758E-3
MEAN_MOTION_DOT = .742E-4
MEAN_MOTION_DDOT = 0

CCSDS_OMM_VERS = 2.0
CREATION_DATE  = 
ORIGINATOR     = 

OBJECT_NAME    = 2025-313AT
OBJECT_ID      = 2025-313AT
CENTER_NAME    = EARTH
REF_FRAME      = TEME
TIME_SYSTEM    = UTC
MEAN_ELEMENT_THEORY = SGP/SGP4

EPOCH          = 2026-01-11T11:46:11.459424
MEAN_MOTION    = 15.21440565
ECCENTRICITY   = .00101122
INCLINATION    = 97.4115
RA_OF_ASC_NODE = 88.7396
ARG_OF_PERICENTER = 180.9187
MEAN_ANOMALY   = 179.2032

EPHEMERIS_TYPE = 0
CLASSIFICATION_TYPE = U
NORAD_CAT_ID   = 67289
ELEMENT_SET_NO = 999
REV_AT_EPOCH   = 212
BSTAR          = .77032116E-3
MEAN_MOTION_DOT = .17282E-3
MEAN_MOTION_DDOT = 0

